NORAD_CAT_ID,OBJECT_NAME,OBJECT_TYPE,EPOCH,MEAN_MOTION,ECCENTRICITY,INCLINATION,RA_OF_ASC_NODE,ARG_OF_PERICENTER,MEAN_ANOMALY,BSTAR,MEAN_MOTION_DOT,MEAN_MOTION_DDOT,TLE_LINE0,TLE_LINE1,TLE_LINE2,SEMIMAJOR_AXIS,PERIOD,APOGEE,PERIGEE,DECAYED
51754.0,STARLINK-3457,PAYLOAD,2022-06-29 14:00:01,15.0880239,0.0001916,53.2149,245.4971,40.3753,341.906,0.0022796999999999,0.00036143,0.0,0 STARLINK-3457,1 51754U 22016AS  22180.58334491  .00036143  00000-0  22797-2 0  9999,2 51754  53.2149 245.4971 0001916  40.3753 341.9060 15.08802390 21157,6917.995,95.44,541.186,538.535,0.0
51754.0,STARLINK-3457,PAYLOAD,2022-06-29 22:00:00,15.08827391,0.0001789,53.2148,243.9991,42.2977,351.5527,-0.00059907,-9.806e-05,0.0,0 STARLINK-3457,1 51754U 22016AS  22180.91667824 -.00009806  00000-0 -59907-3 0  9997,2 51754  53.2148 243.9991 0001789  42.2977 351.5527 15.08827391  1306,6917.919,95.438,541.0219999999998,538.5459999999998,0.0
51754.0,STARLINK-3457,PAYLOAD,2022-06-30 06:00:00,15.08842027,0.0001807,53.215,242.5028,45.0779,0.3435,-0.00086985,-0.00014106,0.0,0 STARLINK-3457,1 51754U 22016AS  22181.25001157 -.00014106  00000-0 -86985-3 0  9991,2 51754  53.2150 242.5028 0001807  45.0779   0.3435 15.08842027 21253,6917.874,95.437,540.989,538.489,0.0
51754.0,STARLINK-3457,PAYLOAD,2022-06-30 14:00:01,15.08809765,0.0001991,53.2149,241.008,40.1435,16.8734,0.0025647,0.00040732,0.0,0 STARLINK-3457,1 51754U 22016AS  22181.58334491  .00040732  00000-0  25647-2 0  9996,2 51754  53.2149 241.0080 0001991  40.1435  16.8734 15.08809765  1302,6917.973000000001,95.439,541.215,538.46,0.0
51754.0,STARLINK-3457,PAYLOAD,2022-06-30 22:00:00,15.088316199999998,0.0001844,53.215,239.51,42.9068,25.6904,-0.00011083,-2.051e-05,0.0,0 STARLINK-3457,1 51754U 22016AS  22181.91667824 -.00002051  00000-0 -11083-3 0  9996,2 51754  53.2150 239.5100 0001844  42.9068  25.6904 15.08831620  1300,6917.906,95.438,541.047,538.495,0.0
51754.0,STARLINK-3457,PAYLOAD,2022-07-01 06:00:00,15.08852998,0.0001874,53.2151,238.0137,45.0423,35.1368,-0.0012435,-0.00020031,0.0,0 STARLINK-3457,1 51754U 22016AS  22182.25001157 -.00020031  00000-0 -12435-2 0  9994,2 51754  53.2151 238.0137 0001874  45.0423  35.1368 15.08852998 21401,6917.840999999999,95.437,541.002,538.409,0.0
51754.0,STARLINK-3457,PAYLOAD,2022-07-01 14:00:01,15.08817352,0.0002039,53.2149,236.5188,40.121,51.6648,0.0027991,0.00044514,0.0,0 STARLINK-3457,1 51754U 22016AS  22182.58334491  .00044514  00000-0  27991-2 0  9993,2 51754  53.2149 236.5188 0002039  40.1210  51.6648 15.08817352  1307,6917.95,95.439,541.225,538.404,0.0
51754.0,STARLINK-3457,PAYLOAD,2022-07-01 22:00:00,15.08836049,0.0001861,53.215,235.0206,43.6138,59.7644,0.0004392,6.708e-05,0.0,0 STARLINK-3457,1 51754U 22016AS  22182.91667824  .00006708  00000-0  43920-3 0  9993,2 51754  53.2150 235.0206 0001861  43.6138  59.7644 15.08836049  1302,6917.892,95.438,541.045,538.47,0.0
51754.0,STARLINK-3457,PAYLOAD,2022-07-02 06:00:00,15.08861623,0.0001897,53.2151,233.5244,45.2783,69.6886,-0.0015405999999999,-0.00024738,0.0,0 STARLINK-3457,1 51754U 22016AS  22183.25001157 -.00024738  00000-0 -15406-2 0  9994,2 51754  53.2151 233.5244 0001897  45.2783  69.6886 15.08861623 21554,6917.814,95.436,540.992,538.367,0.0
51754.0,STARLINK-3457,PAYLOAD,2022-07-02 14:00:01,15.08824222,0.0002054,53.2148,232.0294,40.2461,86.3354,0.0028653,0.00045589,0.0,0 STARLINK-3457,1 51754U 22016AS  22183.58334491  .00045589  00000-0  28653-2 0  9993,2 51754  53.2148 232.0294 0002054  40.2461  86.3354 15.08824222  1304,6917.929,95.439,541.215,538.373,0.0
51754.0,STARLINK-3457,PAYLOAD,2022-07-02 22:00:00,15.088448199999998,0.0001857,53.2148,230.5312,44.3632,93.8291,0.0012097,0.00019019,0.0,0 STARLINK-3457,1 51754U 22016AS  22183.91667824  .00019019  00000-0  12097-2 0  9993,2 51754  53.2148 230.5312 0001857  44.3632  93.8291 15.08844820  1302,6917.866,95.437,541.015,538.446,0.0
51754.0,STARLINK-3457,PAYLOAD,2022-07-03 00:00:00,15.0883419,0.0001843,53.2148,230.1567,45.4819,185.6154,0.0027765,0.00044171,0.0,0 STARLINK-3457,1 51754U 22016AS  22184.00001157  .00044171  00000-0  27765-2 0  9990,2 51754  53.2148 230.1567 0001843  45.4819 185.6154 15.08834190 21662,6917.898,95.438,541.038,538.488,0.0
51754.0,STARLINK-3457,PAYLOAD,2022-07-03 14:00:01,15.08848037,0.0002028,53.2146,227.5399,40.2298,121.1916,0.00073817,0.00011482,0.0,0 STARLINK-3457,1 51754U 22016AS  22184.58334491  .00011482  00000-0  73817-3 0  9992,2 51754  53.2146 227.5399 0002028  40.2298 121.1916 15.08848037 21759,6917.856,95.437,541.124,538.318,0.0
51754.0,STARLINK-3457,PAYLOAD,2022-07-03 22:00:00,15.08825094,0.0001773,53.2146,226.0417,42.779,130.2602,0.00084693,0.00013211,0.0,0 STARLINK-3457,1 51754U 22016AS  22184.91667824  .00013211  00000-0  84693-3 0  9994,2 51754  53.2146 226.0417 0001773  42.7790 130.2602 15.08825094  1304,6917.926,95.438,541.0169999999998,538.564,0.0
51754.0,STARLINK-3457,PAYLOAD,2022-07-04 06:00:00,15.0885108,0.0001841,53.2148,224.546,44.3567,140.261,-0.0018527,-0.00029662,0.0,0 STARLINK-3457,1 51754U 22016AS  22185.25001157 -.00029662  00000-0 -18527-2 0  9994,2 51754  53.2148 224.5460 0001841  44.3567 140.2610 15.08851080 21859,6917.847,95.437,540.985,538.438,0.0
51754.0,STARLINK-3457,PAYLOAD,2022-07-04 14:00:01,15.08817763,0.0001995,53.2142,223.0506,39.6522,156.5652,0.002349,0.00037272,0.0,0 STARLINK-3457,1 51754U 22016AS  22185.58334491  .00037272  00000-0  23490-2 0  9999,2 51754  53.2142 223.0506 0001995  39.6522 156.5652 15.08817763  1300,6917.948,95.439,541.193,538.433,0.0
51754.0,STARLINK-3457,PAYLOAD,2022-07-04 22:00:00,15.08821637,0.000181,53.2143,221.5523,44.2028,163.6091,0.0018484,0.00029237,0.0,0 STARLINK-3457,1 51754U 22016AS  22185.91667824  .00029237  00000-0  18484-2 0  9994,2 51754  53.2143 221.5523 0001810  44.2028 163.6091 15.08821637 21956,6917.937,95.439,541.054,538.549,0.0
51754.0,STARLINK-3457,PAYLOAD,2022-07-05 14:00:01,15.08828343,0.0002039,53.2141,218.5613,40.6128,190.3853,0.0019025,0.00030111,0.0,0 STARLINK-3457,1 51754U 22016AS  22186.58334491  .00030111  00000-0  19025-2 0  9994,2 51754  53.2141 218.5613 0002039  40.6128 190.3853 15.08828343 22051,6917.916,95.438,541.192,538.37,0.0
51754.0,STARLINK-3457,PAYLOAD,2022-07-05 22:00:00,15.08822807,0.0001879,53.2142,217.0629,45.032,197.5674,0.0021543,0.00034148,0.0,0 STARLINK-3457,1 51754U 22016AS  22186.91667824  .00034148  00000-0  21543-2 0  9992,2 51754  53.2142 217.0629 0001879  45.0320 197.5674 15.08822807  1301,6917.933000000001,95.439,541.0980000000002,538.498,0.0
51754.0,STARLINK-3457,PAYLOAD,2022-07-06 06:00:00,15.08858195,0.0001997,53.2144,215.5676,45.3797,208.8068,-0.0016837,-0.00026998,0.0,0 STARLINK-3457,1 51754U 22016AS  22187.25001157 -.00026998  00000-0 -16837-2 0  9997,2 51754  53.2144 215.5676 0001997  45.3797 208.8068 15.08858195 22158,6917.825,95.436,541.071,538.308,0.0
51754.0,STARLINK-3457,PAYLOAD,2022-07-06 14:00:01,15.08836617,0.0002115,53.2142,214.0718,41.0075,224.783,0.0012771,0.00020094,0.0,0 STARLINK-3457,1 51754U 22016AS  22187.58334491  .00020094  00000-0  12771-2 0  9995,2 51754  53.2142 214.0718 0002115  41.0075 224.7830 15.08836617  1305,6917.891,95.438,541.219,538.293,0.0
51754.0,STARLINK-3457,PAYLOAD,2022-07-06 19:11:09,15.0884328,0.0002027,53.2157,213.1006,45.1403,314.9754,5.4633e-05,5.81e-06,0.0,0 STARLINK-3457,1 51754U 22016AS  22187.79941832  .00000581  00000-0  54633-4 0  9995,2 51754  53.2157 213.1006 0002027  45.1403 314.9754 15.08843280 22239,6917.87,95.437,541.138,538.3330000000002,0.0
51754.0,STARLINK-3457,PAYLOAD,2022-07-07 11:05:00,15.08846726,0.0002066,53.2158,210.1269,45.4636,314.6525,4.523600000000001e-05,4.32e-06,0.0,0 STARLINK-3457,1 51754U 22016AS  22188.46181395  .00000432  00000-0  45236-4 0  9994,2 51754  53.2158 210.1269 0002066  45.4636 314.6525 15.08846726 21221,6917.86,95.437,541.154,538.2959999999998,0.0
51754.0,STARLINK-3457,PAYLOAD,2022-07-07 22:00:00,15.0879901,0.0001966,53.2148,208.0839,44.1544,268.0134,0.0027742,0.00044091,0.0,0 STARLINK-3457,1 51754U 22016AS  22188.91667824  .00044091  00000-0  27742-2 0  9999,2 51754  53.2148 208.0839 0001966  44.1544 268.0134 15.08799010 22403,6918.005999999999,95.44,541.231,538.511,0.0
51754.0,STARLINK-3457,PAYLOAD,2022-07-08 14:00:01,15.08835553,0.0002213,53.2147,205.0931,40.1396,295.183,0.0002867,4.277e-05,0.0,0 STARLINK-3457,1 51754U 22016AS  22189.58334491  .00004277  00000-0  28670-3 0  9998,2 51754  53.2147 205.0931 0002213  40.1396 295.1830 15.08835553 22507,6917.894,95.438,541.29,538.2280000000002,0.0
51754.0,STARLINK-3457,PAYLOAD,2022-07-08 22:00:01,15.08813711,0.0002048,53.215,203.595,45.607,301.3797,0.0031515,0.0005019,0.0,0 STARLINK-3457,1 51754U 22016AS  22189.91668981  .00050190  00000-0  31515-2 0  9995,2 51754  53.2150 203.5950 0002048  45.6070 301.3797 15.08813711  1309,6917.9609999999975,95.439,541.243,538.409,0.0
51754.0,STARLINK-3457,PAYLOAD,2022-07-09 14:00:01,15.088548800000002,0.0002237,53.2147,200.6038,40.5494,329.5443,-0.0021548,-0.00034434,0.0,0 STARLINK-3457,1 51754U 22016AS  22190.58334491 -.00034434  00000-0 -21548-2 0  9996,2 51754  53.2147 200.6038 0002237  40.5494 329.5443 15.08854880  1306,6917.835,95.437,541.247,538.1519999999998,0.0
51754.0,STARLINK-3457,PAYLOAD,2022-07-09 16:00:00,15.08868407,0.0002194,53.2148,200.2292,42.1767,60.8137,-0.0047888,-0.00075763,0.0,0 STARLINK-3457,1 51754U 22016AS  22190.66667824 -.00075763  00000-0 -47888-2 0  9999,2 51754  53.2148 200.2292 0002194  42.1767  60.8137 15.08868407 22676,6917.794,95.436,541.1759999999998,538.141,0.0
51754.0,STARLINK-3457,PAYLOAD,2022-07-09 20:00:01,15.08817774,0.0002051,53.2151,199.4802,44.1532,244.6513,-0.00012953,-2.348e-05,0.0,0 STARLINK-3457,1 51754U 22016AS  22190.83334491 -.00002348  00000-0 -12953-3 0  9994,2 51754  53.2151 199.4802 0002051  44.1532 244.6513 15.08817774  1308,6917.948,95.439,541.232,538.394,0.0
